[{"OBJECT_NAME":"AUTCUBE 2","OBJECT_ID":"2018-084K","EPOCH":"2026-03-09T11:33:24.036480","MEAN_MOTION":15.09319394,"ECCENTRICITY":0.00096854,"INCLINATION":98.0799,"RA_OF_ASC_NODE":269.364,"ARG_OF_PERICENTER":28.2406,"MEAN_ANOMALY":331.9345,"EPHEMERIS_TYPE":0,"CLASSIFICATION_TYPE":"U","NORAD_CAT_ID":43681,"ELEMENT_SET_NO":999,"REV_AT_EPOCH":40188,"BSTAR":0.00033524122,"MEAN_MOTION_DOT":5.282e-5,"MEAN_MOTION_DDOT":0},{"OBJECT_NAME":"STARLINK-3246","OBJECT_ID":"2021-115J","EPOCH":"2026-03-09T22:27:08.076096","MEAN_MOTION":15.08835579,"ECCENTRICITY":0.00010448,"INCLINATION":53.2176,"RA_OF_ASC_NODE":158.1735,"ARG_OF_PERICENTER":81.0202,"MEAN_ANOMALY":279.0909,"EPHEMERIS_TYPE":0,"CLASSIFICATION_TYPE":"U","NORAD_CAT_ID":49732,"ELEMENT_SET_NO":999,"REV_AT_EPOCH":23542,"BSTAR":4.254229e-6,"MEAN_MOTION_DOT":-2.2e-6,"MEAN_MOTION_DDOT":0}]
